{"type": "FeatureCollection", "features": [ {"type": "Feature", "properties": {"norad_id": 66727, "name": "FLOCK 4H-24", "group": "last-30-days", "lat": -27.813940162097754, "lon": 73.93201162050715, "alt_km": 519.3163899844312, "timestamp": "2025-12-24T09:46:29.714983+00:00", "meta": {"OBJECT_NAME": "FLOCK 4H-24", "OBJECT_ID": "2025-276BP", "EPOCH": "2025-12-24T03:34:02.964288", "MEAN_MOTION": 15.17340043, "ECCENTRICITY": 0.0002855, "INCLINATION": 97.4439, "RA_OF_ASC_NODE": 69.7227, "ARG_OF_PERICENTER": 255.8351, "MEAN_ANOMALY": 104.2565, "EPHEMERIS_TYPE": 0, "CLASSIFICATION_TYPE": "U", "NORAD_CAT_ID": 66727, "ELEMENT_SET_NO": 999, "REV_AT_EPOCH": 385, "BSTAR": 0.00032237, "MEAN_MOTION_DOT": 6.367e-05, "MEAN_MOTION_DDOT": 0}, "tle": {"line1": "1 66727U 25276BP  25358.14864542  .00006367  00000+0  32237-3 0  9998", "line2": "2 66727  97.4439  69.7227 0002855 255.8351 104.2565 15.17340043  3855"}}, "geometry": {"type": "Point", "coordinates": [73.93201162050715, -27.813940162097754]}}, {"type": "Feature", "properties": {"norad_id": 66728, "name": "FLOCK 4H-25", "group": "last-30-days", "lat": 53.13699123257585, "lon": 59.9578003451403, "alt_km": 505.6905588676409, "timestamp": "2025-12-24T09:46:29.714993+00:00", "meta": {"OBJECT_NAME": "FLOCK 4H-25", "OBJECT_ID": "2025-276BQ", "EPOCH": "2025-12-24T03:12:41.844096", "MEAN_MOTION": 15.18226225, "ECCENTRICITY": 0.0001711, "INCLINATION": 97.4397, "RA_OF_ASC_NODE": 69.7253, "ARG_OF_PERICENTER": 116.4963, "MEAN_ANOMALY": 243.6447, "EPHEMERIS_TYPE": 0, "CLASSIFICATION_TYPE": "U", "NORAD_CAT_ID": 66728, "ELEMENT_SET_NO": 999, "REV_AT_EPOCH": 313, "BSTAR": 0.00030309, "MEAN_MOTION_DOT": 6.136e-05, "MEAN_MOTION_DDOT": 0}, "tle": {"line1": "1 66728U 25276BQ  25358.13381764  .00006136  00000+0  30309-3 0  9990", "line2": "2 66728  97.4397  69.7253 0001711 116.4963 243.6447 15.18226225  3133"}}, "geometry": {"type": "Point", "coordinates": [59.9578003451403, 53.13699123257585]}}, {"type": "Feature", "properties": {"norad_id": 66729, "name": "FLOCK 4H-26", "group": "last-30-days", "lat": -45.81777443708556, "lon": 77.67735408049548, "alt_km": 519.9330123929294, "timestamp": "2025-12-24T09:46:29.715003+00:00", "meta": {"OBJECT_NAME": "FLOCK 4H-26", "OBJECT_ID": "2025-276BR", "EPOCH": "2025-12-24T03:38:49.533216", "MEAN_MOTION": 15.17163701, "ECCENTRICITY": 0.0003704, "INCLINATION": 97.4391, "RA_OF_ASC_NODE": 69.7001, "ARG_OF_PERICENTER": 254.8465, "MEAN_ANOMALY": 105.2359, "EPHEMERIS_TYPE": 0, "CLASSIFICATION_TYPE": "U", "NORAD_CAT_ID": 66729, "ELEMENT_SET_NO": 999, "REV_AT_EPOCH": 385, "BSTAR": 0.00037816, "MEAN_MOTION_DOT": 7.444e-05, "MEAN_MOTION_DDOT": 0}, "tle": {"line1": "1 66729U 25276BR  25358.15196219  .00007444  00000+0  37816-3 0  9995", "line2": "2 66729  97.4391  69.7001 0003704 254.8465 105.2359 15.17163701  3859"}}, "geometry": {"type": "Point", "coordinates": [77.67735408049548, -45.81777443708556]}}, {"type": "Feature", "properties": {"norad_id": 66730, "name": "FLOCK 4H-27", "group": "last-30-days", "lat": 40.97469648005361, "lon": 63.466209928469105, "alt_km": 508.3073047860171, "timestamp": "2025-12-24T09:46:29.715013+00:00", "meta": {"OBJECT_NAME": "FLOCK 4H-27", "OBJECT_ID": "2025-276BS", "EPOCH": "2025-12-24T03:15:55.526112", "MEAN_MOTION": 15.18097077, "ECCENTRICITY": 0.000132, "INCLINATION": 97.4372, "RA_OF_ASC_NODE": 69.714, "ARG_OF_PERICENTER": 127.241, "MEAN_ANOMALY": 232.8945, "EPHEMERIS_TYPE": 0, "CLASSIFICATION_TYPE": "U", "NORAD_CAT_ID": 66730, "ELEMENT_SET_NO": 999, "REV_AT_EPOCH": 385, "BSTAR": 0.00036354, "MEAN_MOTION_DOT": 7.347e-05, "MEAN_MOTION_DDOT": 0}, "tle": {"line1": "1 66730U 25276BS  25358.13605933  .00007347  00000+0  36354-3 0  9991", "line2": "2 66730  97.4372  69.7140 0001320 127.2410 232.8945 15.18097077  3850"}}, "geometry": {"type": "Point", "coordinates": [63.466209928469105, 40.97469648005361]}}, {"type": "Feature", "properties": {"norad_id": 66731, "name": "FLOCK 4H-28", "group": "last-30-days", "lat": -44.192295140695414, "lon": 77.2439602049711, "alt_km": 519.8264680318889, "timestamp": "2025-12-24T09:46:29.715025+00:00", "meta": {"OBJECT_NAME": "FLOCK 4H-28", "OBJECT_ID": "2025-276BT", "EPOCH": "2025-12-24T03:38:23.106912", "MEAN_MOTION": 15.17151833, "ECCENTRICITY": 0.0003348, "INCLINATION": 97.4377, "RA_OF_ASC_NODE": 69.6965, "ARG_OF_PERICENTER": 262.5295, "MEAN_ANOMALY": 97.5558, "EPHEMERIS_TYPE": 0, "CLASSIFICATION_TYPE": "U", "NORAD_CAT_ID": 66731, "ELEMENT_SET_NO": 999, "REV_AT_EPOCH": 385, "BSTAR": 0.00048455, "MEAN_MOTION_DOT": 9.556e-05, "MEAN_MOTION_DDOT": 0}, "tle": {"line1": "1 66731U 25276BT  25358.15165633  .00009556  00000+0  48455-3 0  9991", "line2": "2 66731  97.4377  69.6965 0003348 262.5295  97.5558 15.17151833  3852"}}, "geometry": {"type": "Point", "coordinates": [77.2439602049711, -44.192295140695414]}}, {"type": "Feature", "properties": {"norad_id": 66732, "name": "FLOCK 4H-29", "group": "last-30-days", "lat": -31.28290639507126, "lon": 74.5090002328486, "alt_km": 520.0197194175435, "timestamp": "2025-12-24T09:46:29.715035+00:00", "meta": {"OBJECT_NAME": "FLOCK 4H-29", "OBJECT_ID": "2025-276BU", "EPOCH": "2025-12-23T03:50:31.112448", "MEAN_MOTION": 15.17286901, "ECCENTRICITY": 0.00020889, "INCLINATION": 97.4392, "RA_OF_ASC_NODE": 68.7307, "ARG_OF_PERICENTER": 236.6345, "MEAN_ANOMALY": 123.4689, "EPHEMERIS_TYPE": 0, "CLASSIFICATION_TYPE": "U", "NORAD_CAT_ID": 66732, "ELEMENT_SET_NO": 999, "REV_AT_EPOCH": 370, "BSTAR": 0.0019114481, "MEAN_MOTION_DOT": 0.00038183, "MEAN_MOTION_DDOT": 0}, "tle": {"line1": "1 66732U 25276BU  25357.16008232  .00038183  00000+0  19114-2 0  9990", "line2": "2 66732  97.4392  68.7307 0002088 236.6345 123.4689 15.17286901  3701"}}, "geometry": {"type": "Point", "coordinates": [74.5090002328486, -31.28290639507126]}}, {"type": "Feature", "properties": {"norad_id": 66733, "name": "FLOCK 4H-30", "group": "last-30-days", "lat": -37.70862598049282, "lon": 75.77152991746506, "alt_km": 519.5741919059265, "timestamp": "2025-12-24T09:46:29.715045+00:00", "meta": {"OBJECT_NAME": "FLOCK 4H-30", "OBJECT_ID": "2025-276BV", "EPOCH": "2025-12-24T04:00:01.998720", "MEAN_MOTION": 15.17244514, "ECCENTRICITY": 0.0003181, "INCLINATION": 97.4432, "RA_OF_ASC_NODE": 69.7341, "ARG_OF_PERICENTER": 259.64, "MEAN_ANOMALY": 189.0018, "EPHEMERIS_TYPE": 0, "CLASSIFICATION_TYPE": "U", "NORAD_CAT_ID": 66733, "ELEMENT_SET_NO": 999, "REV_AT_EPOCH": 328, "BSTAR": 0.002612, "MEAN_MOTION_DOT": 0.00052242, "MEAN_MOTION_DDOT": 0}, "tle": {"line1": "1 66733U 25276BV  25358.16668980  .00052242  00000+0  26120-2 0  9991", "line2": "2 66733  97.4432  69.7341 0003181 259.6400 189.0018 15.17244514  3289"}}, "geometry": {"type": "Point", "coordinates": [75.77152991746506, -37.70862598049282]}}, {"type": "Feature", "properties": {"norad_id": 66734, "name": "FLOCK 4H-31", "group": "last-30-days", "lat": -37.2954906321692, "lon": 75.65649042883186, "alt_km": 519.5693985521866, "timestamp": "2025-12-24T09:46:29.715055+00:00", "meta": {"OBJECT_NAME": "FLOCK 4H-31", "OBJECT_ID": "2025-276BW", "EPOCH": "2025-12-24T04:00:01.998720", "MEAN_MOTION": 15.17198785, "ECCENTRICITY": 0.0002677, "INCLINATION": 97.4367, "RA_OF_ASC_NODE": 69.7106, "ARG_OF_PERICENTER": 270.2776, "MEAN_ANOMALY": 178.8318, "EPHEMERIS_TYPE": 0, "CLASSIFICATION_TYPE": "U", "NORAD_CAT_ID": 66734, "ELEMENT_SET_NO": 999, "REV_AT_EPOCH": 328, "BSTAR": 0.002633, "MEAN_MOTION_DOT": 0.00052595, "MEAN_MOTION_DDOT": 0}, "tle": {"line1": "1 66734U 25276BW  25358.16668980  .00052595  00000+0  26330-2 0  9996", "line2": "2 66734  97.4367  69.7106 0002677 270.2776 178.8318 15.17198785  3287"}}, "geometry": {"type": "Point", "coordinates": [75.65649042883186, -37.2954906321692]}}, {"type": "Feature", "properties": {"norad_id": 66735, "name": "FLOCK 4H-32", "group": "last-30-days", "lat": -39.41171266982263, "lon": 76.13196525426612, "alt_km": 519.7465979914159, "timestamp": "2025-12-24T09:46:29.715065+00:00", "meta": {"OBJECT_NAME": "FLOCK 4H-32", "OBJECT_ID": "2025-276BX", "EPOCH": "2025-12-24T03:37:07.596768", "MEAN_MOTION": 15.17243922, "ECCENTRICITY": 0.0003584, "INCLINATION": 97.4424, "RA_OF_ASC_NODE": 69.7134, "ARG_OF_PERICENTER": 254.0895, "MEAN_ANOMALY": 105.9944, "EPHEMERIS_TYPE": 0, "CLASSIFICATION_TYPE": "U", "NORAD_CAT_ID": 66735, "ELEMENT_SET_NO": 999, "REV_AT_EPOCH": 385, "BSTAR": 0.00052011, "MEAN_MOTION_DOT": 0.0001029, "MEAN_MOTION_DDOT": 0}, "tle": {"line1": "1 66735U 25276BX  25358.15078237  .00010290  00000+0  52011-3 0  9998", "line2": "2 66735  97.4424  69.7134 0003584 254.0895 105.9944 15.17243922  3856"}}, "geometry": {"type": "Point", "coordinates": [76.13196525426612, -39.41171266982263]}}, {"type": "Feature", "properties": {"norad_id": 66736, "name": "FLOCK 4H-33", "group": "last-30-days", "lat": 56.10553377423655, "lon": 58.785763451562886, "alt_km": 505.85562833593303, "timestamp": "2025-12-24T09:46:29.715077+00:00", "meta": {"OBJECT_NAME": "FLOCK 4H-33", "OBJECT_ID": "2025-276BY", "EPOCH": "2025-12-24T03:11:54.732768", "MEAN_MOTION": 15.18307251, "ECCENTRICITY": 0.00027, "INCLINATION": 97.4426, "RA_OF_ASC_NODE": 69.7363, "ARG_OF_PERICENTER": 155.2058, "MEAN_ANOMALY": 204.9306, "EPHEMERIS_TYPE": 0, "CLASSIFICATION_TYPE": "U", "NORAD_CAT_ID": 66736, "ELEMENT_SET_NO": 999, "REV_AT_EPOCH": 385, "BSTAR": 0.00051161, "MEAN_MOTION_DOT": 0.00010435, "MEAN_MOTION_DDOT": 0}, "tle": {"line1": "1 66736U 25276BY  25358.13327237  .00010435  00000+0  51161-3 0  9990", "line2": "2 66736  97.4426  69.7363 0002700 155.2058 204.9306 15.18307251  3854"}}, "geometry": {"type": "Point", "coordinates": [58.785763451562886, 56.10553377423655]}}]}